[{"OBJECT_NAME":"IRIDIUM 134","OBJECT_ID":"2017-083F","EPOCH":"2026-03-09T21:58:07.186944","MEAN_MOTION":14.34217743,"ECCENTRICITY":0.00020775,"INCLINATION":86.4026,"RA_OF_ASC_NODE":3.549,"ARG_OF_PERICENTER":86.3687,"MEAN_ANOMALY":273.7747,"EPHEMERIS_TYPE":0,"CLASSIFICATION_TYPE":"U","NORAD_CAT_ID":43075,"ELEMENT_SET_NO":999,"REV_AT_EPOCH":42987,"BSTAR":2.4162884e-5,"MEAN_MOTION_DOT":8.7e-7,"MEAN_MOTION_DDOT":0},{"OBJECT_NAME":"CZ-6A DEB","OBJECT_ID":"2024-140ADU","EPOCH":"2026-03-07T11:29:13.858368","MEAN_MOTION":14.35705267,"ECCENTRICITY":0.00427971,"INCLINATION":88.5132,"RA_OF_ASC_NODE":251.3418,"ARG_OF_PERICENTER":214.3181,"MEAN_ANOMALY":145.5252,"EPHEMERIS_TYPE":0,"CLASSIFICATION_TYPE":"U","NORAD_CAT_ID":64630,"ELEMENT_SET_NO":999,"REV_AT_EPOCH":7881,"BSTAR":0.0012641104,"MEAN_MOTION_DOT":3.703e-5,"MEAN_MOTION_DDOT":0}]
